ONEWEB-0158             
1 48054U 21025N   24129.50714655 -.00000155  00000+0 -45953-3 0  9993
2 48054  87.8896 113.4210 0001845  86.4914 273.6426 13.13470014152597
ONEWEB-0157             
1 48055U 21025P   24129.45477273 -.00000156  00000+0 -46087-3 0  9990
2 48055  87.8892 113.4469 0002121  81.6474 278.4895 13.13471282152520
ONEWEB-0162             
1 48056U 21025Q   24129.49445290  .00000214  00000+0  55145-3 0  9997
2 48056  87.8893 113.4354 0001971  84.2320 275.9034 13.13469691152502
ONEWEB-0155             
1 48057U 21025R   24129.51507447 -.00000277  00000+0 -79372-3 0  9993
2 48057  87.8893 113.4410 0002016  87.2445 272.8915 13.13470881152640
ONEWEB-0149             
1 48058U 21025S   24129.45951819 -.00000237  00000+0 -68262-3 0  9995
2 48058  87.8892 113.4486 0001924  79.7555 280.3791 13.13471716152440
ONEWEB-0148             
1 48059U 21025T   24129.50078116  .00000027  00000+0  38748-4 0  9994
2 48059  87.8899 113.4490 0002134  68.3370 291.7986 13.13471773152575
ONEWEB-0160             
1 48060U 21025U   24129.44048649 -.00000300  00000+0 -85573-3 0  9990
2 48060  87.8899 113.4569 0001263 109.3776 250.7490 13.13470349152519
ONEWEB-0163             
1 48061U 21025V   24129.50238348 -.00000054  00000+0 -18254-3 0  9993
2 48061  87.8895 113.4382 0002272  83.5158 276.6230 13.13470591152649
